#dP2024  8  1  0  0  0.00000000      97 __u+U IGS20 FIT  IAC
## 2325 345600.00000000   900.00000000 60523 0.0000000000000
+  119   C06C07C08C09C10C11C12C13C14C16C19C20C21C22C23C24C25
+        C26C27C28C29C30C32C33C34C35C36C37C38C39C40C41C42C43
+        C44C45E02E03E04E05E06E07E08E09E10E11E12E13E14E15E18
+        E19E21E24E25E26E27E29E30E31E33E34E36G02G03G04G05G06
+        G07G08G09G10G11G12G13G14G15G16G17G18G19G20G21G22G23
+        G24G25G26G27G28G29G30G31G32J02J03J04R01R02R03R04R05
+        R07R08R09R11R12R14R15R16R17R18R19R20R21R22R24R25R26
++         7  8  7  7  7  7  7  7  7  7  5  6  6  5  6  6  5
++         6  6  6  6  6  6  6  6  5  5  6  6  6  6  6  6  6
++         5  6  4  4  4  4  5  4  4  4  4  4  4  4  4  4  4
++         4  4  4  4  4  4  4  4  4  4  4  4  3  3  4  3  3
++         3  3  3  3  3  3  4  3  4  3  3  3  3  3  3  3  4
++         4  3  3  3  3  3  3  3  3 11 11 11  7  7  6  6  6
++         7  7  7  7  7  6  6  6  6  6  7  7  6  7  6  8  8
%c M  cc GPS ccc cccc cccc cccc cccc ccccc ccccc ccccc ccccc
%c cc cc ccc ccc cccc cccc cccc cccc ccccc ccccc ccccc ccccc
%f  1.2500000  1.025000000  0.00000000000  0.000000000000000
%f  0.0000000  0.000000000  0.00000000000  0.000000000000000
%i    0    0    0    0      0      0      0      0         0
%i    0    0    0    0      0      0      0      0         0
/* INFORMATION & ANALYSIS CENTER (IAC)            FINAL DATA
/* S/V CLOCKS ARE ALIGNED TO GNSS TIME                      
/* G:C1WC2W R:C1PC2P E:C1XC5X C:C2IC6I J:C1CC2S             
/* PCV:IGS20_2317 OL/AL:FES2004  NONE     YN ORB:CoN CLK:CoN
*  2024 08 01 10 45  0.00000000
PC06  -1524.088765  32993.092451  26461.328903    642.892088
PC07 -15043.039819  27865.913902 -27811.632857   -499.359390
PC08 -14210.773695  39001.943610   6571.618462   -376.795418
PC09   6778.969446  37926.164975  18351.986489   -116.152166
PC10  -7691.201692  28323.136342 -30044.980860   -104.703578
PC11 -11087.836935  10951.366134 -23083.306412    690.932948
PC12 -23475.907541  -5023.690858 -14200.247335   -265.434894
PC13  -9033.133735  39286.294553  12026.859132    438.357085
PC14 -20414.431182  16785.537007   9059.356850    915.358413
PC16  -2348.043624  32084.618083  27749.627576   -697.818550
PC19  12432.361702 -18535.419487 -16719.175842   -922.228245
PC20  24523.036245 -13169.689174  -1689.085042   -751.523847
PC21 -22914.372896   -804.815774 -15924.446216   -948.876918
PC22  -7602.942645 -13623.510045 -23151.135360     78.746490
PC23   5785.477356  25260.402192 -10336.405245   -807.362996
PC24 -15389.161414  11684.336698  20120.254667    867.323361
PC25  -6224.528620  26269.853988   7016.545009    466.877465
PC26 -15124.709168  -9308.206176  21518.088344   -328.042921
PC27  24617.847156  11631.963017   6099.067651    348.772743
PC28  17359.199139  19765.157802  -9299.334865    269.098650
PC29   2347.466647 -16902.531007  22075.562339    315.952418
PC30  19983.391786  -3436.099443  19168.986586   -150.732842
PC32  22823.965681    755.538385  16030.908519   -689.489863
PC33 -12442.000167  18649.312419  16626.387086   -963.977841
PC34 -18839.235899   4895.688092 -20005.811461    489.640990
PC35 -17718.410768 -19233.264271   9685.874088    298.445498
PC36   6608.229240 -26268.541550  -6708.862887    150.313001
PC37  14929.605883   9571.991353 -21524.473830   -914.563467
PC38 -18442.175319  37649.391695  -3521.965963    170.667789
PC39  -6998.628415  27241.269635  31551.687174     -9.377761
PC40 -21318.818292  21285.263640 -29600.770756    -83.274989
PC41   6659.604432  14149.013321  23158.216135   -932.805588
PC42 -25084.794393  12272.394880    -34.674078   -458.385882
PC43  -3432.055756  16541.549189 -22224.819699     80.829931
PC44 -25067.719761 -10692.763472  -5965.579747    550.216779
PC45  -5365.044448 -25502.065966  10017.337847   -111.473115
PE02  -1952.937550 -20759.628409  21014.657146    147.875073
PE03 -12629.041724 -16633.875735 -20988.469681   -130.771329
PE04  27884.740164   8116.521327   5704.666498      2.431172
PE05   9686.991077 -15136.249317 -23518.395474   4771.171236
PE06  29307.670755   1677.334424  -3814.142683    -10.876937
PE07 -26667.408728   4553.105332  12033.804842   -134.219729
PE08 -27555.991644  -8619.674296  -6566.067694   -312.115300
PE09  26678.058776  -4428.282243 -12014.088323   -536.614810
PE10  17919.697849   5205.326596  22963.748608   -645.022381
PE11  14656.463039  -6605.152639  24838.950097   2188.073948
PE12  18265.376319  14953.687911  17856.560927  -1148.337561
PE13 -14838.280769   5965.631838 -24908.761914    -23.459425
PE14  -3288.629427  18754.797740 -22404.734937    143.573536
PE15 -18163.863748 -15525.480872 -17469.396774   -118.264211
PE18 -16604.719805 -16629.690018  16055.017655    383.357428
PE19  10437.577226  16883.639945  21962.335136    384.634440
PE21 -14164.591476  25117.804494  -6686.015929   -608.634764
PE24  22671.435840 -14615.095587 -12216.095677   -906.088731
PE25  14452.116611 -25053.491236   6303.762545      7.524585
PE26  -2623.545594  23937.052541 -17208.309920    529.016608
PE27 -22583.765805  14850.385320  12069.892522   -415.108081
PE29  -9262.712359  15407.183585  23510.230340    -19.707268
PE30 -17589.797961  -4150.214405  23436.923553   -566.402943
PE31  17583.103641   4024.691628 -23457.224006    -31.155444
PE33  10490.091289  27666.454436   -574.371132     14.255779
PE34 -10838.739577 -27553.313246     88.055459   -125.943596
PE36   2918.085102 -23566.197931  17668.676497   -263.011784
PG02  18381.050245   6429.395667  18675.953864   -387.718054
PG03  18978.649369  -7134.411740  16928.396030    482.409177
PG04  26292.416193    538.889721  -4215.603487    415.465222
PG05 -12152.482494  -8914.251179 -22052.539528   -181.720588
PG06  -3668.820312 -24395.974899   9759.762631    126.119683
PG07  10645.470414 -12048.244643 -20537.274156    -59.120098
PG08  24887.284517   6756.880578  -7343.632726    298.314354
PG09  20841.091192  -8504.470367 -14228.934531    296.355357
PG10  -8707.282451  23081.868888   9597.281827    -81.571907
PG11 -12406.684284 -23134.851412  -4235.653629   -714.670623
PG12 -18918.526947   3129.691006  18078.283864   -526.909765
PG13 -18831.972535 -13783.899056 -13120.449274    668.172503
PG14  11986.450480 -22875.188414   5724.644901    462.297025
PG15 -25341.106070  -4164.325769  -7645.382870    187.618959
PG16   8730.951287  13091.557198 -21678.153147   -220.653401
PG17   7242.102490 -14034.389007  21797.262130    665.120903
PG18 -10005.256878  12738.979268 -20988.895696   -642.265829
PG19  -3292.104543 -15560.388404  21174.419893    518.546575
PG20  -5801.038883 -18234.292754 -18416.943523    372.145373
PG21  19091.005629  12353.549512  14958.438275    105.486297
PG22   6556.039670 -22244.153067  13625.926212    -46.335257
PG23 -16230.854031  20677.450922  -2856.141974    287.236783
PG24 -18946.979569  -8767.444113  16218.253241   -485.165563
PG25 -19237.803663  14239.212453  10896.116171    499.000725
PG26   -200.211611  21942.129792 -14855.429623    109.116962
PG27  17198.810281  12860.898831 -16187.950432    -32.326254
PG28   2656.786592  23713.901947  11652.787194   -355.032255
PG29 -23557.578802   4070.777839 -11752.927350   -586.527810
PG30   2879.405863 -21170.857436 -15455.653195   -347.753518
PG31  10224.952769  24277.943138    250.703509   -226.287074
PG32  -4326.905449  14846.061872  21792.478058   -608.795066
PJ02 -35910.745365  22222.267220   4267.738911     -0.675863
PJ03 -20691.041714  22118.820035 -24682.247832     -1.508931
PJ04 -25921.222904  32241.569591  14780.332703     50.866611
PR01 -24541.208512   6753.257870  -1786.708964     93.155259
PR02 -17326.023041  11689.790190  14615.949358    -23.927444
PR03    128.718012  11135.461148  22987.429220    104.819301
PR04  16799.091618   4424.941568  18709.427627    247.875577
PR05  24737.318189  -4471.689534   4407.642132    135.400504
PR07   -710.360737 -10965.232128 -22985.685529     87.891366
PR08 -17039.532756  -4208.916837 -18438.236675     -6.236123
PR09   9447.187887 -21793.337192  -9159.867055    200.937322
PR11  -6337.023557 -14388.637180  20094.801492     16.335202
PR12 -12212.762985   6202.613076  21546.784735     43.124004
PR14  -1841.552383  24179.881360  -7932.723267     26.753336
PR15   7084.004784  12951.266616 -20779.630005     77.305223
PR16  12012.606981  -6056.413945 -21647.404482     27.889553
PR17   9926.455451  18835.425297 -14004.814373    109.702667
PR18  18469.871187  17528.862865   1844.530562    154.858406
PR19  17997.908388   9181.104806  15558.964262   -285.972863
PR20   5868.440174  -8897.531963  23177.897297   -117.037227
PR21  -9468.778577 -18808.785140  14420.013385   -122.355268
PR22 -18343.645076 -17467.482272  -2968.232607     78.045672
PR24  -5342.856770   9899.100947 -22877.660094    -66.044263
PR25  -9340.294522 -19444.052814  13640.702876    -99.043016
PR26 -15938.412457  -4838.924176 -19310.079843      7.348587
EOF
